start=new Date('2021-12-21T00:00:00.000Z').valueOf();
sats=[{"REV_AT_EPOCH":"7722","MEAN_ELEMENT_THEORY":"SGP4","SITE":"AFETR","EPHEMERIS_TYPE":"0","INCLINATION":"53.0544","FILE":"3245895","DECAY_DATE":null,"CLASSIFICATION_TYPE":"U","SEMIMAJOR_AXIS":"6925.355","TLE_LINE2":"2 46068  53.0544 169.1055 0002426  86.3943 273.7323 15.06397759 77228","COUNTRY_CODE":"US","TIME_SYSTEM":"UTC","CENTER_NAME":"EARTH","MEAN_ANOMALY":"273.7323","MEAN_MOTION":"15.06397759","OBJECT_TYPE":"PAYLOAD","TLE_LINE1":"1 46068U 20055AT  21354.87524640 -.00000541  00000-0 -17377-4 0  9998","ARG_OF_PERICENTER":"86.3943","RA_OF_ASC_NODE":"169.1055","PERIOD":"95.592","RCS_SIZE":"LARGE","REF_FRAME":"TEME","MEAN_MOTION_DDOT":"0.0000000000000","MEAN_MOTION_DOT":"-0.00000541","EPOCH":"2021-12-20T21:00:21.288960","LAUNCH_DATE":"2020-08-07","OBJECT_NAME":"STARLINK-1532","APOAPSIS":"548.901","PERIAPSIS":"545.540","ECCENTRICITY":"0.00024260","OBJECT_ID":"2020-055AT","ELEMENT_SET_NO":"999","BSTAR":"-0.00001737700000","GP_ID":"192110644","NORAD_CAT_ID":"46068"},{"REF_FRAME":"TEME","RCS_SIZE":"LARGE","RA_OF_ASC_NODE":"169.0444","PERIOD":"95.592","TLE_LINE1":"1 46069U 20055AU  21354.88999294  .00001427  00000-0  11469-3 0  9998","OBJECT_TYPE":"PAYLOAD","ARG_OF_PERICENTER":"90.2140","GP_ID":"192110896","BSTAR":"0.00011469000000","NORAD_CAT_ID":"46069","ELEMENT_SET_NO":"999","OBJECT_ID":"2020-055AU","PERIAPSIS":"545.494","ECCENTRICITY":"0.00024510","APOAPSIS":"548.888","EPOCH":"2021-12-20T21:21:35.390016","LAUNCH_DATE":"2020-08-07","OBJECT_NAME":"STARLINK-1533","MEAN_MOTION_DDOT":"0.0000000000000","MEAN_MOTION_DOT":"0.00001427","SEMIMAJOR_AXIS":"6925.326","CLASSIFICATION_TYPE":"U","DECAY_DATE":null,"FILE":"3245895","SITE":"AFETR","EPHEMERIS_TYPE":"0","INCLINATION":"53.0529","MEAN_ELEMENT_THEORY":"SGP4","REV_AT_EPOCH":"7723","MEAN_ANOMALY":"269.9130","MEAN_MOTION":"15.06407386","CENTER_NAME":"EARTH","TIME_SYSTEM":"UTC","COUNTRY_CODE":"US","TLE_LINE2":"2 46069  53.0529 169.0444 0002451  90.2140 269.9130 15.06407386 77236"},{"TLE_LINE2":"2 46070  53.0528 169.2742 0002377  84.9697 275.1563 15.06399216 77224","COUNTRY_CODE":"US","TIME_SYSTEM":"UTC","CENTER_NAME":"EARTH","MEAN_ANOMALY":"275.1563","MEAN_MOTION":"15.06399216","REV_AT_EPOCH":"7722","MEAN_ELEMENT_THEORY":"SGP4","INCLINATION":"53.0528","SITE":"AFETR","EPHEMERIS_TYPE":"0","FILE":"3245895","DECAY_DATE":null,"CLASSIFICATION_TYPE":"U","SEMIMAJOR_AXIS":"6925.351","MEAN_MOTION_DOT":"0.00001209","MEAN_MOTION_DDOT":"0.0000000000000","LAUNCH_DATE":"2020-08-07","OBJECT_NAME":"STARLINK-1536","EPOCH":"2021-12-20T20:07:16.864896","APOAPSIS":"548.862","ECCENTRICITY":"0.00023770","PERIAPSIS":"545.570","ELEMENT_SET_NO":"999","OBJECT_ID":"2020-055AV","GP_ID":"192111147","NORAD_CAT_ID":"46070","BSTAR":"0.00010009000000","ARG_OF_PERICENTER":"84.9697","OBJECT_TYPE":"PAYLOAD","TLE_LINE1":"1 46070U 20055AV  21354.83838964  .00001209  00000-0  10009-3 0  9998","PERIOD":"95.592","RA_OF_ASC_NODE":"169.2742","RCS_SIZE":"LARGE","REF_FRAME":"TEME"},{"APOAPSIS":"548.775","MEAN_MOTION_DOT":"0.00001250","MEAN_MOTION_DDOT":"0.0000000000000","LAUNCH_DATE":"2020-08-07","OBJECT_NAME":"STARLINK-1538","EPOCH":"2021-12-20T20:33:48.789216","NORAD_CAT_ID":"46071","GP_ID":"192109895","BSTAR":"0.00010284000000","ECCENTRICITY":"0.00022360","PERIAPSIS":"545.678","OBJECT_ID":"2020-055AW","ELEMENT_SET_NO":"999","RCS_SIZE":"LARGE","ARG_OF_PERICENTER":"90.0027","OBJECT_TYPE":"PAYLOAD","TLE_LINE1":"1 46071U 20055AW  21354.85681469  .00001250  00000-0  10284-3 0  9998","PERIOD":"95.592","RA_OF_ASC_NODE":"169.2020","REF_FRAME":"TEME","TIME_SYSTEM":"UTC","CENTER_NAME":"EARTH","TLE_LINE2":"2 46071  53.0525 169.2020 0002236  90.0027 270.1218 15.06395884 77229","COUNTRY_CODE":"US","MEAN_ANOMALY":"270.1218","MEAN_MOTION":"15.06395884","MEAN_ELEMENT_THEORY":"SGP4","INCLINATION":"53.0525","EPHEMERIS_TYPE":"0","SITE":"AFETR","REV_AT_EPOCH":"7722","CLASSIFICATION_TYPE":"U","SEMIMAJOR_AXIS":"6925.361","FILE":"3245895","DECAY_DATE":null},{"INCLINATION":"53.0556","SITE":"AFETR","EPHEMERIS_TYPE":"0","MEAN_ELEMENT_THEORY":"SGP4","REV_AT_EPOCH":"7720","SEMIMAJOR_AXIS":"6925.349","CLASSIFICATION_TYPE":"U","DECAY_DATE":null,"FILE":"3245895","CENTER_NAME":"EARTH","TIME_SYSTEM":"UTC","COUNTRY_CODE":"US","TLE_LINE2":"2 46072  53.0556 169.3702 0002847 100.4222 259.7088 15.06399795 77204","MEAN_MOTION":"15.06399795","MEAN_ANOMALY":"259.7088","RCS_SIZE":"LARGE","PERIOD":"95.592","RA_OF_ASC_NODE":"169.3702","ARG_OF_PERICENTER":"100.4222","TLE_LINE1":"1 46072U 20055AX  21354.81533532  .00001615  00000-0  12734-3 0  9999","OBJECT_TYPE":"PAYLOAD","REF_FRAME":"TEME","APOAPSIS":"549.186","OBJECT_NAME":"STARLINK-1539","LAUNCH_DATE":"2020-08-07","EPOCH":"2021-12-20T19:34:04.971648","MEAN_MOTION_DOT":"0.00001615","MEAN_MOTION_DDOT":"0.0000000000000","BSTAR":"0.00012734000000","GP_ID":"192110145","NORAD_CAT_ID":"46072","OBJECT_ID":"2020-055AX","ELEMENT_SET_NO":"999","ECCENTRICITY":"0.00028470","PERIAPSIS":"545.243"},{"MEAN_MOTION":"15.06401072","MEAN_ANOMALY":"273.5448","TLE_LINE2":"2 46073  53.0526 169.3223 0002495  86.5826 273.5448 15.06401072 77210","COUNTRY_CODE":"US","TIME_SYSTEM":"UTC","CENTER_NAME":"EARTH","FILE":"3245895","DECAY_DATE":null,"CLASSIFICATION_TYPE":"U","SEMIMAJOR_AXIS":"6925.345","REV_AT_EPOCH":"7721","MEAN_ELEMENT_THEORY":"SGP4","INCLINATION":"53.0526","SITE":"AFETR","EPHEMERIS_TYPE":"0","ECCENTRICITY":"0.00024950","PERIAPSIS":"545.482","OBJECT_ID":"2020-055AY","ELEMENT_SET_NO":"999","GP_ID":"192111396","BSTAR":"0.00020000000000","NORAD_CAT_ID":"46073","MEAN_MOTION_DOT":"0.00002698","MEAN_MOTION_DDOT":"0.0000000000000","OBJECT_NAME":"STARLINK-1542","LAUNCH_DATE":"2020-08-07","EPOCH":"2021-12-20T19:56:40.750080","APOAPSIS":"548.938","REF_FRAME":"TEME","ARG_OF_PERICENTER":"86.5826","OBJECT_TYPE":"PAYLOAD","TLE_LINE1":"1 46073U 20055AY  21354.83102720  .00002698  00000-0  20000-3 0  9990","PERIOD":"95.592","RA_OF_ASC_NODE":"169.3223","RCS_SIZE":"LARGE"},{"MEAN_ANOMALY":"277.1238","MEAN_MOTION":"15.06391493","TIME_SYSTEM":"UTC","CENTER_NAME":"EARTH","TLE_LINE2":"2 46074  53.0532 169.0810 0002273  83.0009 277.1238 15.06391493 77218","COUNTRY_CODE":"US","CLASSIFICATION_TYPE":"U","SEMIMAJOR_AXIS":"6925.375","FILE":"3245895","DECAY_DATE":null,"MEAN_ELEMENT_THEORY":"SGP4","EPHEMERIS_TYPE":"0","SITE":"AFETR","INCLINATION":"53.0532","REV_AT_EPOCH":"7721","GP_ID":"192111647","BSTAR":"0.00008745800000","NORAD_CAT_ID":"46074","PERIAPSIS":"545.665","ECCENTRICITY":"0.00022730","ELEMENT_SET_NO":"999","OBJECT_ID":"2020-055AZ","APOAPSIS":"548.814","MEAN_MOTION_DDOT":"0.0000000000000","MEAN_MOTION_DOT":"0.00001021","EPOCH":"2021-12-20T21:10:58.656576","LAUNCH_DATE":"2020-08-07","OBJECT_NAME":"STARLINK-1549","REF_FRAME":"TEME","RCS_SIZE":"LARGE","OBJECT_TYPE":"PAYLOAD","TLE_LINE1":"1 46074U 20055AZ  21354.88262334  .00001021  00000-0  87458-4 0  9994","ARG_OF_PERICENTER":"83.0009","RA_OF_ASC_NODE":"169.0810","PERIOD":"95.593"},{"MEAN_ELEMENT_THEORY":"SGP4","EPHEMERIS_TYPE":"0","SITE":"AFETR","INCLINATION":"53.0514","REV_AT_EPOCH":"7721","CLASSIFICATION_TYPE":"U","SEMIMAJOR_AXIS":"6925.320","FILE":"3245895","DECAY_DATE":null,"TIME_SYSTEM":"UTC","CENTER_NAME":"EARTH","TLE_LINE2":"2 46075  53.0514 169.2700 0002388  90.4605 269.6658 15.06409441 77215","COUNTRY_CODE":"US","MEAN_ANOMALY":"269.6658","MEAN_MOTION":"15.06409441","RCS_SIZE":"LARGE","TLE_LINE1":"1 46075U 20055BA  21354.84207333  .00002927  00000-0  21526-3 0  9998","OBJECT_TYPE":"PAYLOAD","ARG_OF_PERICENTER":"90.4605","RA_OF_ASC_NODE":"169.2700","PERIOD":"95.592","REF_FRAME":"TEME","APOAPSIS":"548.838","MEAN_MOTION_DDOT":"0.0000000000000","MEAN_MOTION_DOT":"0.00002927","EPOCH":"2021-12-20T20:12:35.135712","LAUNCH_DATE":"2020-08-07","OBJECT_NAME":"STARLINK-1551","GP_ID":"192110395","NORAD_CAT_ID":"46075","BSTAR":"0.00021526000000","PERIAPSIS":"545.531","ECCENTRICITY":"0.00023880","OBJECT_ID":"2020-055BA","ELEMENT_SET_NO":"999"},{"OBJECT_TYPE":"PAYLOAD","TLE_LINE1":"1 46076U 20055BB  21354.80152886 -.00000690  00000-0 -27398-4 0  9998","ARG_OF_PERICENTER":"82.9871","RA_OF_ASC_NODE":"169.4531","PERIOD":"95.592","RCS_SIZE":"LARGE","REF_FRAME":"TEME","MEAN_MOTION_DDOT":"0.0000000000000","MEAN_MOTION_DOT":"-0.00000690","EPOCH":"2021-12-20T19:14:12.093504","LAUNCH_DATE":"2020-08-07","OBJECT_NAME":"STARLINK-1552","APOAPSIS":"548.983","PERIAPSIS":"545.457","ECCENTRICITY":"0.00025460","OBJECT_ID":"2020-055BB","ELEMENT_SET_NO":"999","GP_ID":"192110645","NORAD_CAT_ID":"46076","BSTAR":"-0.00002739800000","REV_AT_EPOCH":"7719","MEAN_ELEMENT_THEORY":"SGP4","SITE":"AFETR","EPHEMERIS_TYPE":"0","INCLINATION":"53.0536","FILE":"3245895","DECAY_DATE":null,"CLASSIFICATION_TYPE":"U","SEMIMAJOR_AXIS":"6925.355","TLE_LINE2":"2 46076  53.0536 169.4531 0002546  82.9871 277.1407 15.06397833 77195","COUNTRY_CODE":"US","TIME_SYSTEM":"UTC","CENTER_NAME":"EARTH","MEAN_ANOMALY":"277.1407","MEAN_MOTION":"15.06397833"},{"PERIAPSIS":"545.618","ECCENTRICITY":"0.00023090","OBJECT_ID":"2020-055BC","ELEMENT_SET_NO":"999","BSTAR":"-0.00001911900000","GP_ID":"192110897","NORAD_CAT_ID":"46077","MEAN_MOTION_DDOT":"0.0000000000000","MEAN_MOTION_DOT":"-0.00000567","EPOCH":"2021-12-20T20:23:12.410880","OBJECT_NAME":"STARLINK-1559","LAUNCH_DATE":"2020-08-07","APOAPSIS":"548.816","REF_FRAME":"TEME","TLE_LINE1":"1 46077U 20055BC  21354.84944920 -.00000567  00000-0 -19119-4 0  9996","OBJECT_TYPE":"PAYLOAD","ARG_OF_PERICENTER":"84.5105","RA_OF_ASC_NODE":"169.2247","PERIOD":"95.592","RCS_SIZE":"LARGE","MEAN_ANOMALY":"275.6148","MEAN_MOTION":"15.06398771","TLE_LINE2":"2 46077  53.0529 169.2247 0002309  84.5105 275.6148 15.06398771 77170","COUNTRY_CODE":"US","TIME_SYSTEM":"UTC","CENTER_NAME":"EARTH","FILE":"3245895","DECAY_DATE":null,"CLASSIFICATION_TYPE":"U","SEMIMAJOR_AXIS":"6925.352","REV_AT_EPOCH":"7717","MEAN_ELEMENT_THEORY":"SGP4","SITE":"AFETR","EPHEMERIS_TYPE":"0","INCLINATION":"53.0529"}];
